start=new Date('2022-02-02T00:00:00.000Z').valueOf();
sats=[{"RCS_SIZE":"LARGE","MEAN_MOTION":"15.06395341","TIME_SYSTEM":"UTC","APOAPSIS":"548.298","ELEMENT_SET_NO":"999","GP_ID":"195123470","CENTER_NAME":"EARTH","RA_OF_ASC_NODE":"161.5515","BSTAR":"0.00000882360000","REV_AT_EPOCH":"5039","LAUNCH_DATE":"2021-03-14","TLE_LINE1":"1 47881U 21021X   22032.76806869 -.00000150  00000-0  88236-5 0  9992","NORAD_CAT_ID":"47881","EPOCH":"2022-02-01T18:26:01.134816","INCLINATION":"53.0597","REF_FRAME":"TEME","OBJECT_NAME":"STARLINK-2339","MEAN_ANOMALY":"268.5508","SEMIMAJOR_AXIS":"6925.363","PERIAPSIS":"546.157","SITE":"AFETR","MEAN_ELEMENT_THEORY":"SGP4","OBJECT_TYPE":"PAYLOAD","ECCENTRICITY":"0.00015460","EPHEMERIS_TYPE":"0","CLASSIFICATION_TYPE":"U","OBJECT_ID":"2021-021X","TLE_LINE2":"2 47881  53.0597 161.5515 0001546  91.5658 268.5508 15.06395341 50391","DECAY_DATE":null,"COUNTRY_CODE":"US","FILE":"3289675","MEAN_MOTION_DDOT":"0.0000000000000","PERIOD":"95.592","MEAN_MOTION_DOT":"-0.00000150","ARG_OF_PERICENTER":"91.5658"},{"BSTAR":"-0.00004460500000","REV_AT_EPOCH":"5073","ELEMENT_SET_NO":"999","RA_OF_ASC_NODE":"151.6655","GP_ID":"195122726","CENTER_NAME":"EARTH","RCS_SIZE":"LARGE","MEAN_MOTION":"15.06383468","TIME_SYSTEM":"UTC","APOAPSIS":"548.232","INCLINATION":"53.0549","NORAD_CAT_ID":"47882","EPOCH":"2022-02-01T17:50:11.270400","LAUNCH_DATE":"2021-03-14","TLE_LINE1":"1 47882U 21021Y   22032.74318600 -.00000945  00000-0 -44605-4 0  9996","PERIAPSIS":"546.297","SITE":"AFETR","MEAN_ANOMALY":"281.7109","SEMIMAJOR_AXIS":"6925.399","REF_FRAME":"TEME","OBJECT_NAME":"STARLINK-2340","COUNTRY_CODE":"US","FILE":"3289675","MEAN_MOTION_DOT":"-0.00000945","PERIOD":"95.593","MEAN_MOTION_DDOT":"0.0000000000000","ARG_OF_PERICENTER":"78.4037","OBJECT_ID":"2021-021Y","TLE_LINE2":"2 47882  53.0549 151.6655 0001397  78.4037 281.7109 15.06383468 50732","DECAY_DATE":null,"OBJECT_TYPE":"PAYLOAD","ECCENTRICITY":"0.00013970","EPHEMERIS_TYPE":"0","CLASSIFICATION_TYPE":"U","MEAN_ELEMENT_THEORY":"SGP4"},{"SEMIMAJOR_AXIS":"6925.327","MEAN_ANOMALY":"281.5605","OBJECT_NAME":"STARLINK-2342","REF_FRAME":"TEME","SITE":"AFETR","PERIAPSIS":"546.241","EPHEMERIS_TYPE":"0","CLASSIFICATION_TYPE":"U","ECCENTRICITY":"0.00013740","OBJECT_TYPE":"PAYLOAD","MEAN_ELEMENT_THEORY":"SGP4","MEAN_MOTION_DOT":"0.00001757","PERIOD":"95.592","MEAN_MOTION_DDOT":"0.0000000000000","ARG_OF_PERICENTER":"78.5538","COUNTRY_CODE":"US","FILE":"3289675","TLE_LINE2":"2 47883  53.0530 156.8051 0001374  78.5538 281.5605 15.06406948 50662","DECAY_DATE":null,"OBJECT_ID":"2021-021Z","GP_ID":"195122976","CENTER_NAME":"EARTH","RA_OF_ASC_NODE":"156.8051","ELEMENT_SET_NO":"999","TIME_SYSTEM":"UTC","APOAPSIS":"548.144","MEAN_MOTION":"15.06406948","RCS_SIZE":"LARGE","REV_AT_EPOCH":"5066","BSTAR":"0.00013676000000","TLE_LINE1":"1 47883U 21021Z   22032.71505764  .00001757  00000-0  13676-3 0  9996","LAUNCH_DATE":"2021-03-14","INCLINATION":"53.0530","EPOCH":"2022-02-01T17:09:40.980096","NORAD_CAT_ID":"47883"},{"MEAN_ELEMENT_THEORY":"SGP4","EPHEMERIS_TYPE":"0","CLASSIFICATION_TYPE":"U","OBJECT_TYPE":"PAYLOAD","ECCENTRICITY":"0.00013910","TLE_LINE2":"2 47884  53.0546 161.2772 0001391  82.8898 277.2249 15.06394491 50436","DECAY_DATE":null,"OBJECT_ID":"2021-021AA","PERIOD":"95.592","ARG_OF_PERICENTER":"82.8898","MEAN_MOTION_DDOT":"0.0000000000000","MEAN_MOTION_DOT":"-0.00000387","COUNTRY_CODE":"US","FILE":"3289675","OBJECT_NAME":"STARLINK-2343","REF_FRAME":"TEME","SEMIMAJOR_AXIS":"6925.365","MEAN_ANOMALY":"277.2249","SITE":"AFETR","PERIAPSIS":"546.267","TLE_LINE1":"1 47884U 21021AA  22032.83070958 -.00000387  00000-0 -70898-5 0  9993","LAUNCH_DATE":"2021-03-14","EPOCH":"2022-02-01T19:56:13.307712","NORAD_CAT_ID":"47884","INCLINATION":"53.0546","TIME_SYSTEM":"UTC","APOAPSIS":"548.194","RCS_SIZE":"LARGE","MEAN_MOTION":"15.06394491","GP_ID":"195123228","CENTER_NAME":"EARTH","RA_OF_ASC_NODE":"161.2772","ELEMENT_SET_NO":"999","REV_AT_EPOCH":"5043","BSTAR":"-0.00000708980000"},{"PERIAPSIS":"546.146","SITE":"AFETR","REF_FRAME":"TEME","OBJECT_NAME":"STARLINK-2344","MEAN_ANOMALY":"279.8669","SEMIMAJOR_AXIS":"6925.354","OBJECT_ID":"2021-021AB","TLE_LINE2":"2 47885  53.0540 166.2983 0001550  80.2495 279.8669 15.06398085 50529","DECAY_DATE":null,"COUNTRY_CODE":"US","FILE":"3289675","PERIOD":"95.592","MEAN_MOTION_DDOT":"0.0000000000000","ARG_OF_PERICENTER":"80.2495","MEAN_MOTION_DOT":"0.00002539","MEAN_ELEMENT_THEORY":"SGP4","OBJECT_TYPE":"PAYLOAD","ECCENTRICITY":"0.00015500","EPHEMERIS_TYPE":"0","CLASSIFICATION_TYPE":"U","BSTAR":"0.00018931000000","REV_AT_EPOCH":"5052","MEAN_MOTION":"15.06398085","RCS_SIZE":"LARGE","TIME_SYSTEM":"UTC","APOAPSIS":"548.293","ELEMENT_SET_NO":"999","RA_OF_ASC_NODE":"166.2983","GP_ID":"195123970","CENTER_NAME":"EARTH","NORAD_CAT_ID":"47885","EPOCH":"2022-02-01T19:47:35.828736","INCLINATION":"53.0540","LAUNCH_DATE":"2021-03-14","TLE_LINE1":"1 47885U 21021AB  22032.82472024  .00002539  00000-0  18931-3 0  9990"},{"LAUNCH_DATE":"2021-03-14","TLE_LINE1":"1 47886U 21021AC  22032.82468767  .00000051  00000-0  22324-4 0  9999","INCLINATION":"53.0552","NORAD_CAT_ID":"47886","EPOCH":"2022-02-01T19:47:33.014688","ELEMENT_SET_NO":"999","CENTER_NAME":"EARTH","GP_ID":"195122227","RA_OF_ASC_NODE":"156.3065","MEAN_MOTION":"15.06400888","RCS_SIZE":"LARGE","APOAPSIS":"548.196","TIME_SYSTEM":"UTC","BSTAR":"0.00002232400000","REV_AT_EPOCH":"5051","ECCENTRICITY":"0.00014230","OBJECT_TYPE":"PAYLOAD","CLASSIFICATION_TYPE":"U","EPHEMERIS_TYPE":"0","MEAN_ELEMENT_THEORY":"SGP4","COUNTRY_CODE":"US","FILE":"3289675","MEAN_MOTION_DOT":"0.00000051","PERIOD":"95.592","MEAN_MOTION_DDOT":"0.0000000000000","ARG_OF_PERICENTER":"84.8874","OBJECT_ID":"2021-021AC","TLE_LINE2":"2 47886  53.0552 156.3065 0001423  84.8874 275.2277 15.06400888 50513","DECAY_DATE":null,"MEAN_ANOMALY":"275.2277","SEMIMAJOR_AXIS":"6925.346","REF_FRAME":"TEME","OBJECT_NAME":"STARLINK-2345","PERIAPSIS":"546.225","SITE":"AFETR"},{"MEAN_ELEMENT_THEORY":"SGP4","CLASSIFICATION_TYPE":"U","EPHEMERIS_TYPE":"0","OBJECT_TYPE":"PAYLOAD","ECCENTRICITY":"0.00018530","DECAY_DATE":null,"TLE_LINE2":"2 47887  53.0531 161.5012 0001853  88.5637 271.5565 15.06399925 50435","OBJECT_ID":"2021-021AD","PERIOD":"95.592","MEAN_MOTION_DOT":"0.00001746","MEAN_MOTION_DDOT":"0.0000000000000","ARG_OF_PERICENTER":"88.5637","FILE":"3289675","COUNTRY_CODE":"US","OBJECT_NAME":"STARLINK-2346","REF_FRAME":"TEME","SEMIMAJOR_AXIS":"6925.349","MEAN_ANOMALY":"271.5565","SITE":"AFETR","PERIAPSIS":"545.931","TLE_LINE1":"1 47887U 21021AD  22032.78279636  .00001746  00000-0  13608-3 0  9996","LAUNCH_DATE":"2021-03-14","EPOCH":"2022-02-01T18:47:13.605504","NORAD_CAT_ID":"47887","INCLINATION":"53.0531","TIME_SYSTEM":"UTC","APOAPSIS":"548.497","RCS_SIZE":"LARGE","MEAN_MOTION":"15.06399925","GP_ID":"195122477","CENTER_NAME":"EARTH","RA_OF_ASC_NODE":"161.5012","ELEMENT_SET_NO":"999","REV_AT_EPOCH":"5043","BSTAR":"0.00013608000000"},{"ELEMENT_SET_NO":"999","GP_ID":"195123728","CENTER_NAME":"EARTH","RA_OF_ASC_NODE":"151.6858","RCS_SIZE":"LARGE","MEAN_MOTION":"15.06400359","TIME_SYSTEM":"UTC","APOAPSIS":"548.226","BSTAR":"-0.00000546900000","REV_AT_EPOCH":"5057","LAUNCH_DATE":"2021-03-14","TLE_LINE1":"1 47888U 21021AE  22032.73947832 -.00000363  00000-0 -54690-5 0  9996","INCLINATION":"53.0553","NORAD_CAT_ID":"47888","EPOCH":"2022-02-01T17:44:50.926848","MEAN_ANOMALY":"283.5622","SEMIMAJOR_AXIS":"6925.347","REF_FRAME":"TEME","OBJECT_NAME":"STARLINK-2348","PERIAPSIS":"546.199","SITE":"AFETR","OBJECT_TYPE":"PAYLOAD","ECCENTRICITY":"0.00014640","CLASSIFICATION_TYPE":"U","EPHEMERIS_TYPE":"0","MEAN_ELEMENT_THEORY":"SGP4","FILE":"3289675","COUNTRY_CODE":"US","MEAN_MOTION_DDOT":"0.0000000000000","PERIOD":"95.592","ARG_OF_PERICENTER":"76.5530","MEAN_MOTION_DOT":"-0.00000363","OBJECT_ID":"2021-021AE","DECAY_DATE":null,"TLE_LINE2":"2 47888  53.0553 151.6858 0001464  76.5530 283.5622 15.06400359 50571"},{"REV_AT_EPOCH":"5063","BSTAR":"0.00079851000000","GP_ID":"195123471","CENTER_NAME":"EARTH","RA_OF_ASC_NODE":"151.3459","ELEMENT_SET_NO":"999","TIME_SYSTEM":"UTC","APOAPSIS":"548.075","MEAN_MOTION":"15.06414932","RCS_SIZE":"LARGE","INCLINATION":"53.0539","EPOCH":"2022-02-01T19:36:20.407104","NORAD_CAT_ID":"47889","TLE_LINE1":"1 47889U 21021AF  22032.81690286  .00011637  00000-0  79851-3 0  9992","LAUNCH_DATE":"2021-03-14","SITE":"AFETR","PERIAPSIS":"546.261","SEMIMAJOR_AXIS":"6925.303","MEAN_ANOMALY":"300.0641","OBJECT_NAME":"STARLINK-2349","REF_FRAME":"TEME","PERIOD":"95.591","MEAN_MOTION_DDOT":"0.0000000000000","MEAN_MOTION_DOT":"0.00011637","ARG_OF_PERICENTER":"60.0478","COUNTRY_CODE":"US","FILE":"3289675","TLE_LINE2":"2 47889  53.0539 151.3459 0001310  60.0478 300.0641 15.06414932 50634","DECAY_DATE":null,"OBJECT_ID":"2021-021AF","CLASSIFICATION_TYPE":"U","EPHEMERIS_TYPE":"0","ECCENTRICITY":"0.00013100","OBJECT_TYPE":"PAYLOAD","MEAN_ELEMENT_THEORY":"SGP4"},{"TLE_LINE1":"1 47890U 21021AG  22032.52979097  .00019707  00000-0  43082-3 0  9995","LAUNCH_DATE":"2021-03-14","EPOCH":"2022-02-01T12:42:53.939808","NORAD_CAT_ID":"47890","INCLINATION":"53.0547","TIME_SYSTEM":"UTC","APOAPSIS":"434.610","MEAN_MOTION":"15.44191585","RCS_SIZE":"LARGE","GP_ID":"195091389","CENTER_NAME":"EARTH","RA_OF_ASC_NODE":"138.9247","ELEMENT_SET_NO":"999","REV_AT_EPOCH":"4978","BSTAR":"0.00043082000000","MEAN_ELEMENT_THEORY":"SGP4","CLASSIFICATION_TYPE":"U","EPHEMERIS_TYPE":"0","OBJECT_TYPE":"PAYLOAD","ECCENTRICITY":"0.00012530","TLE_LINE2":"2 47890  53.0547 138.9247 0001253 104.5598 255.5546 15.44191585 49784","DECAY_DATE":null,"OBJECT_ID":"2021-021AG","PERIOD":"93.253","MEAN_MOTION_DDOT":"0.0000000000000","MEAN_MOTION_DOT":"0.00019707","ARG_OF_PERICENTER":"104.5598","COUNTRY_CODE":"US","FILE":"3289399","OBJECT_NAME":"STARLINK-2350","REF_FRAME":"TEME","SEMIMAJOR_AXIS":"6811.891","MEAN_ANOMALY":"255.5546","SITE":"AFETR","PERIAPSIS":"432.903"}];
